OBJECT_NAME,OBJECT_ID,EPOCH,MEAN_MOTION,ECCENTRICITY,INCLINATION,RA_OF_ASC_NODE,ARG_OF_PERICENTER,MEAN_ANOMALY,EPHEMERIS_TYPE,CLASSIFICATION_TYPE,NORAD_CAT_ID,ELEMENT_SET_NO,REV_AT_EPOCH,BSTAR,MEAN_MOTION_DOT,MEAN_MOTION_DDOT
STARLINK-35162,2025-207X,2026-06-06T22:41:57.963264,15.05654424,.00025854,97.3948,225.9990,96.3399,263.8123,0,U,65613,999,4169,.49798331E-3,.7136E-4,0
STARLINK-35206,2025-207Y,2026-06-06T15:19:19.499232,15.05663911,.00020601,97.3973,225.6511,105.7631,254.3823,0,U,65614,999,4153,.36902245E-3,.5273E-4,0
STARLINK-35174,2025-207Z,2026-06-06T15:31:17.280192,15.05660154,.00026759,97.3958,225.6353,108.3013,251.8505,0,U,65615,999,4164,.61014857E-3,.8759E-4,0
HJS-7A,2025-209A,2026-06-06T08:23:28.465728,13.41463057,.00009761,50.0004,39.0030,39.1615,320.9333,0,U,65617,999,3621,.11710573E-3,-.63E-6,0
HJS-7B,2025-209B,2026-06-06T08:18:58.193568,13.41463552,.00020192,50.0006,38.9920,71.1766,288.9330,0,U,65618,999,3618,.13070382E-3,-.55E-6,0
HJS-7C,2025-209C,2026-06-06T18:58:43.836960,13.41461907,.00025316,50.0009,36.6965,83.1272,276.9894,0,U,65619,999,3624,.16680879E-3,-.35E-6,0
HJS-7D,2025-209D,2026-06-06T09:56:44.531520,13.41471414,.0005208,50.0015,38.0196,5.7319,354.3617,0,U,65620,999,3619,.18800378E-3,-.23E-6,0
STARLINK-35247,2025-210A,2026-06-06T13:06:01.359648,15.30228628,.00015738,53.1580,254.4777,72.8061,287.3112,0,U,65622,999,4133,.13463238E-2,.39764E-3,0
STARLINK-35239,2025-210B,2026-06-06T12:35:06.026784,15.34450364,.00012342,53.1610,252.9284,54.7251,305.3867,0,U,65623,999,4135,.13707295E-2,.46297E-3,0
STARLINK-35151,2025-210C,2026-06-06T18:46:33.264480,15.34452141,.00010563,53.1584,250.2663,62.3787,297.7323,0,U,65624,999,4133,.93561033E-3,.3142E-3,0
STARLINK-35153,2025-210D,2026-06-06T13:59:48.104160,15.34443434,.00011926,53.1591,252.5856,70.6991,289.4141,0,U,65625,999,4128,.14572315E-2,.49251E-3,0
STARLINK-35225,2025-210E,2026-06-06T12:59:19.819104,15.34443116,.0001043,53.1587,253.0336,78.1714,281.9406,0,U,65626,999,4135,.12609158E-2,.42526E-3,0
STARLINK-35217,2025-210F,2026-06-06T21:16:01.569792,15.30209562,.00012489,53.1580,253.0426,73.0942,287.0196,0,U,65627,999,4138,.97298762E-3,.28577E-3,0
STARLINK-35128,2025-210G,2026-06-06T13:11:27.034080,15.34449343,.0001245,53.1576,253.0852,89.6294,270.4851,0,U,65628,999,4135,.12489E-2,.42122E-3,0
STARLINK-35135,2025-210H,2026-06-06T23:07:33.015648,15.34409587,.00011276,53.1573,251.4038,92.6326,267.4806,0,U,65629,999,4141,.80751205E-4,.2354E-4,0
STARLINK-34877,2025-210J,2026-06-06T13:23:34.288800,15.34450432,.0001151,53.1580,253.1332,75.7452,284.3678,0,U,65630,999,4135,.14818E-2,.50105E-3,0
STARLINK-35104,2025-210K,2026-06-06T12:44:11.019840,15.34450840,.00012015,53.1601,252.9653,87.1982,272.9159,0,U,65631,999,4134,.15006866E-2,.50753E-3,0
STARLINK-35117,2025-210L,2026-06-06T13:30:19.057248,15.30224571,.0001094,53.1563,254.5765,62.4787,297.6325,0,U,65632,999,4133,.85333E-3,.25018E-3,0
STARLINK-35103,2025-210M,2026-06-06T12:53:15.723456,15.34414279,.00012979,53.1587,253.0039,59.7067,300.4064,0,U,65633,999,4135,.86367197E-3,.2893E-3,0
STARLINK-35123,2025-210N,2026-06-06T22:00:03.000096,15.31695969,.00011402,53.1593,252.7561,81.4606,158.2517,0,U,65634,999,576,-.74805714E-3,-.23503E-3,0
STARLINK-35150,2025-210P,2026-06-06T13:24:14.516640,15.30236359,.0001082,53.1583,254.5487,72.0055,288.1063,0,U,65635,999,4133,.10603E-2,.31211E-3,0
STARLINK-35209,2025-210Q,2026-06-06T13:47:48.466464,15.34443878,.00009759,53.1584,253.2403,97.6099,262.5014,0,U,65636,999,4135,.8663496E-3,.29049E-3,0
STARLINK-35147,2025-210R,2026-06-06T13:08:25.179360,15.34456497,.00012226,53.1585,253.0695,74.4891,285.6247,0,U,65637,999,4135,.15188213E-2,.51384E-3,0
STARLINK-35213,2025-210S,2026-06-06T13:02:21.792192,15.34437360,.00010357,53.1588,253.0444,78.0699,282.0420,0,U,65638,999,4135,.10978901E-2,.36945E-3,0
STARLINK-35127,2025-210T,2026-06-06T12:50:14.699040,15.34440909,.00012803,53.1600,252.9903,81.4047,278.7100,0,U,65639,999,4135,.13855216E-2,.46789E-3,0
STARLINK-35091,2025-210U,2026-06-06T13:32:39.672384,15.34433146,.000129,53.1573,253.1736,88.1402,271.9748,0,U,65640,999,4135,.10687E-2,.35942E-3,0
STARLINK-35134,2025-210V,2026-06-06T12:41:09.069216,15.34446939,.0001063,53.1586,252.9472,74.4321,285.6799,0,U,65641,999,4135,.93821E-3,.31503E-3,0
STARLINK-35109,2025-210W,2026-06-06T14:05:51.428256,15.34445037,.00013074,53.1590,252.6042,85.3143,274.8009,0,U,65642,999,4136,.87639101E-3,.29393E-3,0
STARLINK-35062,2025-210X,2026-06-06T14:02:49.570080,15.34444361,.0001159,53.1589,252.5909,102.8095,257.3037,0,U,65643,999,4136,.12875E-2,.43437E-3,0
STARLINK-35141,2025-210Y,2026-06-06T13:28:48.842688,15.30214787,.0001464,53.1584,254.5675,92.1236,267.9932,0,U,65644,999,4133,.72399E-3,.21154E-3,0
