STARLINK-35162          
1 65613U 25207X   26157.94580976  .00007136  00000+0  49798-3 0  9992
2 65613  97.3948 225.9990 0002585  96.3399 263.8123 15.05654424 41699
STARLINK-35206          
1 65614U 25207Y   26157.63842013  .00005273  00000+0  36902-3 0  9995
2 65614  97.3973 225.6511 0002060 105.7631 254.3823 15.05663911 41532
STARLINK-35174          
1 65615U 25207Z   26157.64672778  .00008759  00000+0  61015-3 0  9991
2 65615  97.3958 225.6353 0002675 108.3013 251.8505 15.05660154 41642
HJS-7A                  
1 65617U 25209A   26157.34963502 -.00000063  00000+0  11711-3 0  9999
2 65617  50.0004  39.0030 0000976  39.1615 320.9333 13.41463057 36217
HJS-7B                  
1 65618U 25209B   26157.34650687 -.00000055  00000+0  13070-3 0  9998
2 65618  50.0006  38.9920 0002019  71.1766 288.9330 13.41463552 36185
HJS-7C                  
1 65619U 25209C   26157.79078515 -.00000035  00000+0  16681-3 0  9991
2 65619  50.0009  36.6965 0002531  83.1272 276.9894 13.41461907 36248
HJS-7D                  
1 65620U 25209D   26157.41440430 -.00000023  00000+0  18800-3 0  9993
2 65620  50.0015  38.0196 0005208   5.7319 354.3617 13.41471414 36197
STARLINK-35247          
1 65622U 25210A   26157.54584907  .00039764  00000+0  13463-2 0  9991
2 65622  53.1580 254.4777 0001573  72.8061 287.3112 15.30228628 41333
STARLINK-35239          
1 65623U 25210B   26157.52437531  .00046297  00000+0  13707-2 0  9990
2 65623  53.1610 252.9284 0001234  54.7251 305.3867 15.34450364 41356
STARLINK-35151          
1 65624U 25210C   26157.78232945  .00031420  00000+0  93561-3 0  9990
2 65624  53.1584 250.2663 0001056  62.3787 297.7323 15.34452141 41334
STARLINK-35153          
1 65625U 25210D   26157.58319565  .00049251  00000+0  14572-2 0  9998
2 65625  53.1591 252.5856 0001192  70.6991 289.4141 15.34443434 41287
STARLINK-35225          
1 65626U 25210E   26157.54120161  .00042526  00000+0  12609-2 0  9994
2 65626  53.1587 253.0336 0001043  78.1714 281.9406 15.34443116 41359
STARLINK-35217          
1 65627U 25210F   26157.88612928  .00028577  00000+0  97299-3 0  9998
2 65627  53.1580 253.0426 0001248  73.0942 287.0196 15.30209562 41384
STARLINK-35128          
1 65628U 25210G   26157.54961845  .00042122  00000+0  12489-2 0  9996
2 65628  53.1576 253.0852 0001245  89.6294 270.4851 15.34449343 41351
STARLINK-35135          
1 65629U 25210H   26157.96357657  .00002354  00000+0  80751-4 0  9995
2 65629  53.1573 251.4038 0001127  92.6326 267.4806 15.34409587 41415
STARLINK-34877          
1 65630U 25210J   26157.55803575  .00050105  00000+0  14818-2 0  9993
2 65630  53.1580 253.1332 0001151  75.7452 284.3678 15.34450432 41353
STARLINK-35104          
1 65631U 25210K   26157.53068310  .00050753  00000+0  15007-2 0  9992
2 65631  53.1601 252.9653 0001201  87.1982 272.9159 15.34450840 41341
STARLINK-35117          
1 65632U 25210L   26157.56272057  .00025018  00000+0  85333-3 0  9997
2 65632  53.1563 254.5765 0001094  62.4787 297.6325 15.30224571 41334
STARLINK-35103          
1 65633U 25210M   26157.53698754  .00028930  00000+0  86367-3 0  9995
2 65633  53.1587 253.0039 0001297  59.7067 300.4064 15.34414279 41359
STARLINK-35123          
1 65634U 25210N   26157.91670139 -.00023503  00000+0 -74806-3 0  9993
2 65634  53.1593 252.7561 0001140  81.4606 158.2517 15.31695969  5762
STARLINK-35150          
1 65635U 25210P   26157.55850135  .00031211  00000+0  10603-2 0  9997
2 65635  53.1583 254.5487 0001082  72.0055 288.1063 15.30236359 41333
STARLINK-35209          
1 65636U 25210Q   26157.57486651  .00029049  00000+0  86635-3 0  9993
2 65636  53.1584 253.2403 0000975  97.6099 262.5014 15.34443878 41354
STARLINK-35147          
1 65637U 25210R   26157.54751365  .00051384  00000+0  15188-2 0  9999
2 65637  53.1585 253.0695 0001222  74.4891 285.6247 15.34456497 41351
STARLINK-35213          
1 65638U 25210S   26157.54330778  .00036945  00000+0  10979-2 0  9990
2 65638  53.1588 253.0444 0001035  78.0699 282.0420 15.34437360 41357
STARLINK-35127          
1 65639U 25210T   26157.53489235  .00046789  00000+0  13855-2 0  9996
2 65639  53.1600 252.9903 0001280  81.4047 278.7100 15.34440909 41358
STARLINK-35091          
1 65640U 25210U   26157.56434806  .00035942  00000+0  10687-2 0  9994
2 65640  53.1573 253.1736 0001290  88.1402 271.9748 15.34433146 41354
STARLINK-35134          
1 65641U 25210V   26157.52857719  .00031503  00000+0  93821-3 0  9994
2 65641  53.1586 252.9472 0001063  74.4321 285.6799 15.34446939 41351
STARLINK-35109          
1 65642U 25210W   26157.58740079  .00029393  00000+0  87639-3 0  9995
2 65642  53.1590 252.6042 0001307  85.3143 274.8009 15.34445037 41364
STARLINK-35062          
1 65643U 25210X   26157.58529595  .00043437  00000+0  12875-2 0  9998
2 65643  53.1589 252.5909 0001159 102.8095 257.3037 15.34444361 41366
STARLINK-35141          
1 65644U 25210Y   26157.56167642  .00021154  00000+0  72399-3 0  9998
2 65644  53.1584 254.5675 0001464  92.1236 267.9932 15.30214787 41332
